[{"OBJECT_NAME":"COSMOS 2361","OBJECT_ID":"1998-076A","EPOCH":"2026-03-02T18:13:22.654272","MEAN_MOTION":13.73226705,"ECCENTRICITY":0.0032426,"INCLINATION":82.9314,"RA_OF_ASC_NODE":284.9169,"ARG_OF_PERICENTER":44.9193,"MEAN_ANOMALY":27.81,"EPHEMERIS_TYPE":0,"CLASSIFICATION_TYPE":"U","NORAD_CAT_ID":25590,"ELEMENT_SET_NO":999,"REV_AT_EPOCH":36209,"BSTAR":7.8744e-5,"MEAN_MOTION_DOT":8.8e-7,"MEAN_MOTION_DDOT":0},{"OBJECT_NAME":"COSMOS 2378","OBJECT_ID":"2001-023A","EPOCH":"2026-03-02T18:17:58.996032","MEAN_MOTION":13.74150351,"ECCENTRICITY":0.0032739,"INCLINATION":82.9264,"RA_OF_ASC_NODE":300.4046,"ARG_OF_PERICENTER":346.5966,"MEAN_ANOMALY":80.3915,"EPHEMERIS_TYPE":0,"CLASSIFICATION_TYPE":"U","NORAD_CAT_ID":26818,"ELEMENT_SET_NO":999,"REV_AT_EPOCH":24022,"BSTAR":7.5073e-5,"MEAN_MOTION_DOT":8.6e-7,"MEAN_MOTION_DDOT":0},{"OBJECT_NAME":"COSMOS 2389","OBJECT_ID":"2002-026A","EPOCH":"2026-03-02T14:06:14.364864","MEAN_MOTION":13.75163634,"ECCENTRICITY":0.004598,"INCLINATION":82.9465,"RA_OF_ASC_NODE":247.8739,"ARG_OF_PERICENTER":195.5903,"MEAN_ANOMALY":224.7913,"EPHEMERIS_TYPE":0,"CLASSIFICATION_TYPE":"U","NORAD_CAT_ID":27436,"ELEMENT_SET_NO":999,"REV_AT_EPOCH":19246,"BSTAR":5.4237e-5,"MEAN_MOTION_DOT":6.7e-7,"MEAN_MOTION_DDOT":0},{"OBJECT_NAME":"COSMOS 2398","OBJECT_ID":"2003-023A","EPOCH":"2026-03-02T18:28:54.862752","MEAN_MOTION":13.72394643,"ECCENTRICITY":0.0030182,"INCLINATION":82.9481,"RA_OF_ASC_NODE":213.7162,"ARG_OF_PERICENTER":249.6452,"MEAN_ANOMALY":229.2364,"EPHEMERIS_TYPE":0,"CLASSIFICATION_TYPE":"U","NORAD_CAT_ID":27818,"ELEMENT_SET_NO":999,"REV_AT_EPOCH":13914,"BSTAR":4.5948e-5,"MEAN_MOTION_DOT":5.7e-7,"MEAN_MOTION_DDOT":0},{"OBJECT_NAME":"COSMOS 2407","OBJECT_ID":"2004-028A","EPOCH":"2026-03-02T19:01:55.556832","MEAN_MOTION":13.76324069,"ECCENTRICITY":0.0039208,"INCLINATION":82.9639,"RA_OF_ASC_NODE":153.6305,"ARG_OF_PERICENTER":187.9349,"MEAN_ANOMALY":290.4445,"EPHEMERIS_TYPE":0,"CLASSIFICATION_TYPE":"U","NORAD_CAT_ID":28380,"ELEMENT_SET_NO":999,"REV_AT_EPOCH":8524,"BSTAR":5.669e-5,"MEAN_MOTION_DOT":7.1e-7,"MEAN_MOTION_DDOT":0},{"OBJECT_NAME":"COSMOS 2414","OBJECT_ID":"2005-002A","EPOCH":"2026-03-02T16:44:08.347776","MEAN_MOTION":13.87914297,"ECCENTRICITY":0.0038655,"INCLINATION":82.9494,"RA_OF_ASC_NODE":124.2074,"ARG_OF_PERICENTER":273.0277,"MEAN_ANOMALY":86.6464,"EPHEMERIS_TYPE":0,"CLASSIFICATION_TYPE":"U","NORAD_CAT_ID":28521,"ELEMENT_SET_NO":999,"REV_AT_EPOCH":6904,"BSTAR":7.4524e-5,"MEAN_MOTION_DOT":1.04e-6,"MEAN_MOTION_DDOT":0},{"OBJECT_NAME":"COSMOS 2429","OBJECT_ID":"2007-038A","EPOCH":"2026-03-02T16:24:43.582464","MEAN_MOTION":13.75157511,"ECCENTRICITY":0.0038509,"INCLINATION":82.9778,"RA_OF_ASC_NODE":284.3874,"ARG_OF_PERICENTER":170.943,"MEAN_ANOMALY":189.2429,"EPHEMERIS_TYPE":0,"CLASSIFICATION_TYPE":"U","NORAD_CAT_ID":32052,"ELEMENT_SET_NO":999,"REV_AT_EPOCH":92701,"BSTAR":7.2929e-5,"MEAN_MOTION_DOT":8.6e-7,"MEAN_MOTION_DDOT":0},{"OBJECT_NAME":"COSMOS 2454","OBJECT_ID":"2009-039A","EPOCH":"2026-03-02T16:00:17.053920","MEAN_MOTION":13.89940262,"ECCENTRICITY":0.0018719,"INCLINATION":82.9537,"RA_OF_ASC_NODE":108.0595,"ARG_OF_PERICENTER":199.7238,"MEAN_ANOMALY":280.2499,"EPHEMERIS_TYPE":0,"CLASSIFICATION_TYPE":"U","NORAD_CAT_ID":35635,"ELEMENT_SET_NO":999,"REV_AT_EPOCH":84260,"BSTAR":6.3386e-5,"MEAN_MOTION_DOT":9.4e-7,"MEAN_MOTION_DDOT":0},{"OBJECT_NAME":"COSMOS 2463","OBJECT_ID":"2010-017A","EPOCH":"2026-03-02T18:16:39.050112","MEAN_MOTION":13.71657186,"ECCENTRICITY":0.0037439,"INCLINATION":82.9641,"RA_OF_ASC_NODE":327.9201,"ARG_OF_PERICENTER":66.1677,"MEAN_ANOMALY":348.0494,"EPHEMERIS_TYPE":0,"CLASSIFICATION_TYPE":"U","NORAD_CAT_ID":36519,"ELEMENT_SET_NO":999,"REV_AT_EPOCH":79334,"BSTAR":5.9868e-5,"MEAN_MOTION_DOT":7.0e-7,"MEAN_MOTION_DDOT":0}]
