COSMOS 2361             
1 25590U 98076A   26061.75928998  .00000088  00000+0  78744-4 0  9992
2 25590  82.9314 284.9169 0032426  44.9193  27.8100 13.73226705362090
COSMOS 2378             
1 26818U 01023A   26061.76248838  .00000086  00000+0  75073-4 0  9991
2 26818  82.9264 300.4046 0032739 346.5966  80.3915 13.74150351240224
COSMOS 2389             
1 27436U 02026A   26061.58766626  .00000067  00000+0  54237-4 0  9990
2 27436  82.9465 247.8739 0045980 195.5903 224.7913 13.75163634192465
COSMOS 2398             
1 27818U 03023A   26061.77007943  .00000057  00000+0  45948-4 0  9991
2 27818  82.9481 213.7162 0030182 249.6452 229.2364 13.72394643139146
COSMOS 2407             
1 28380U 04028A   26061.79300413  .00000071  00000+0  56690-4 0  9994
2 28380  82.9639 153.6305 0039208 187.9349 290.4445 13.76324069 85244
COSMOS 2414             
1 28521U 05002A   26061.69731884  .00000104  00000+0  74524-4 0  9996
2 28521  82.9494 124.2074 0038655 273.0277  86.6464 13.87914297 69045
COSMOS 2429             
1 32052U 07038A   26061.68383776  .00000086  00000+0  72929-4 0  9999
2 32052  82.9778 284.3874 0038509 170.9430 189.2429 13.75157511927010
COSMOS 2454             
1 35635U 09039A   26061.66686405  .00000094  00000+0  63386-4 0  9991
2 35635  82.9537 108.0595 0018719 199.7238 280.2499 13.89940262842609
COSMOS 2463             
1 36519U 10017A   26061.76156308  .00000070  00000+0  59868-4 0  9990
2 36519  82.9641 327.9201 0037439  66.1677 348.0494 13.71657186793342
